{"fetched_at":"2026-03-30T06:02:59Z","count":15439,"tles":[{"name":"STARLINK-35542","line1":"1 66064U 25235G   26087.92227608  .00021249  00000+0  72732-3 0  9999","line2":"2 66064  53.1592 156.1087 0001438  91.4111 268.7055 15.30208858 25864","category":"Starlink"}]}