{
  "norad_id": 66064,
  "name": "STARLINK-35542",
  "history": [
    {
      "epoch": "2026-03-28T22:08:04.653312",
      "apogee_km": 476.17412937989775,
      "perigee_km": 474.2031129312536,
      "latitude_deg": 17.67968797337816,
      "longitude_deg": 154.9385036798194,
      "semi_major_axis_km": 6853.325621155575,
      "eccentricity": 0.0001438,
      "inclination_deg": 53.1592,
      "raan_deg": 156.1087,
      "arg_perigee_deg": 91.4111,
      "mean_anomaly_deg": 268.7055,
      "mean_motion_rev_day": 15.30208858
    }
  ]
}